[
    {
        "CCSDS_OMM_VERS": "3.0",
        "COMMENT": "GENERATED VIA SPACE-TRACK.ORG API",
        "CREATION_DATE": "2025-04-14T03:05:54",
        "ORIGINATOR": "18 SPCS",
        "OBJECT_NAME": "COSMOS 2514 (GLONASS)",
        "OBJECT_ID": "2016-008A",
        "CENTER_NAME": "EARTH",
        "REF_FRAME": "TEME",
        "TIME_SYSTEM": "UTC",
        "MEAN_ELEMENT_THEORY": "SGP4",
        "EPOCH": "2025-04-13T21:53:11.835456",
        "MEAN_MOTION": "2.13102644",
        "ECCENTRICITY": "0.00086500",
        "INCLINATION": "65.2647",
        "RA_OF_ASC_NODE": "327.7049",
        "ARG_OF_PERICENTER": "205.1048",
        "MEAN_ANOMALY": "154.9078",
        "EPHEMERIS_TYPE": "0",
        "CLASSIFICATION_TYPE": "U",
        "NORAD_CAT_ID": "41330",
        "ELEMENT_SET_NO": "999",
        "REV_AT_EPOCH": "7147",
        "BSTAR": "0.00000000000000",
        "MEAN_MOTION_DOT": "-0.00000046",
        "MEAN_MOTION_DDOT": "0.0000000000000",
        "SEMIMAJOR_AXIS": "25507.973",
        "PERIOD": "675.731",
        "APOAPSIS": "19151.902",
        "PERIAPSIS": "19107.774",
        "OBJECT_TYPE": "PAYLOAD",
        "RCS_SIZE": "LARGE",
        "COUNTRY_CODE": "CIS",
        "LAUNCH_DATE": "2016-02-07",
        "SITE": "PKMTR",
        "DECAY_DATE": null,
        "FILE": "4701263",
        "GP_ID": "285537313",
        "TLE_LINE0": "0 COSMOS 2514 (GLONASS)",
        "TLE_LINE1": "1 41330U 16008A   25103.91194254 -.00000046  00000-0  00000-0 0  9993",
        "TLE_LINE2": "2 41330  65.2647 327.7049 0008650 205.1048 154.9078  2.13102644 71470"
    }
]